OBJECT_NAME,OBJECT_ID,EPOCH,MEAN_MOTION,ECCENTRICITY,INCLINATION,RA_OF_ASC_NODE,ARG_OF_PERICENTER,MEAN_ANOMALY,EPHEMERIS_TYPE,CLASSIFICATION_TYPE,NORAD_CAT_ID,ELEMENT_SET_NO,REV_AT_EPOCH,BSTAR,MEAN_MOTION_DOT,MEAN_MOTION_DDOT
ONEWEB-0053,2020-008AC,2026-07-18T01:09:42.865056,13.10375000,.00014395,87.8816,30.1322,78.0644,282.0645,0,U,45157,999,31195,.11572603E-2,.417E-5,0
ONEWEB-0054,2020-008AD,2026-07-18T02:01:01.014528,13.10372785,.00018518,87.8816,30.1108,86.3398,273.7941,0,U,45158,999,31207,-.60335577E-3,-.198E-5,0
ONEWEB-0056,2020-008AE,2026-07-18T06:49:09.300288,13.10374079,.00020733,87.8823,30.0646,83.8113,276.3251,0,U,45159,999,31225,.17342523E-2,.618E-5,0
ONEWEB-0057,2020-008AF,2026-07-18T05:24:02.068416,13.10370079,.00014759,87.8816,30.0879,74.7034,285.4256,0,U,45160,999,31241,.10465037E-2,.378E-5,0
ONEWEB-0058,2020-008AG,2026-07-18T06:54:48.646656,13.10463417,.00019936,87.8812,30.0785,95.6087,264.5268,0,U,45161,999,31249,.33103235E-1,.11598E-3,0
ONEWEB-0059,2020-008AH,2026-07-18T06:49:35.324832,13.10374886,.0001582,87.8817,30.0794,88.2690,271.8619,0,U,45162,999,31239,.14078945E-2,.504E-5,0
ONEWEB-0062,2020-008AJ,2026-07-18T05:33:24.424416,13.10369329,.00020841,87.8818,30.0796,94.4469,265.6897,0,U,45163,999,31225,.11190635E-3,.52E-6,0
ONEWEB-0065,2020-008AK,2026-07-18T00:52:23.127456,13.10376163,.00017705,87.8823,30.1264,78.1518,281.9808,0,U,45164,999,31192,-.10840177E-2,-.366E-5,0
ONEWEB-0066,2020-020A,2026-07-18T01:07:28.373088,13.11419848,.00017352,87.8883,14.9250,95.2256,264.9070,0,U,45424,999,30672,-.12323386E-2,-.424E-5,0
ONEWEB-0067,2020-020B,2026-07-18T00:11:56.226624,13.11426811,.00017089,87.8907,14.8610,86.7762,273.3561,0,U,45425,999,30677,.10255604E-2,.376E-5,0
ONEWEB-0080,2020-020C,2026-07-18T00:11:35.329056,13.11417256,.0002091,87.8896,14.9328,97.1536,262.9830,0,U,45426,999,30674,.98187992E-3,.361E-5,0
ONEWEB-0090,2020-020D,2026-07-18T04:32:48.388416,13.11415091,.00019144,87.8895,14.9007,92.0689,268.0658,0,U,45427,999,30673,.13881814E-3,.62E-6,0
ONEWEB-0061,2020-020E,2026-07-17T23:49:11.155872,13.11418940,.00018261,87.8892,14.9242,92.3554,267.7783,0,U,45428,999,30666,-.60262586E-3,-.201E-5,0
ONEWEB-0081,2020-020F,2026-07-18T04:52:07.736448,13.11416321,.00016231,87.8889,14.8914,91.6252,268.5062,0,U,45429,999,30680,-.12448917E-2,-.428E-5,0
ONEWEB-0069,2020-020G,2026-07-18T04:54:45.428544,13.11418168,.00016441,87.8892,14.8945,94.6112,265.5204,0,U,45430,999,30673,-.14976974E-2,-.518E-5,0
ONEWEB-0031,2020-020H,2026-07-18T00:16:16.695840,13.11418981,.00020022,87.8882,14.9355,95.4178,264.7178,0,U,45431,999,30669,.13979682E-2,.508E-5,0
ONEWEB-0027,2020-020J,2026-07-18T04:00:32.649120,13.17651072,.00022914,87.9149,359.7024,92.4712,267.6682,0,U,45432,999,31043,-.4165245E-3,-.149E-5,0
ONEWEB-0064,2020-020K,2026-07-18T05:43:25.219776,13.11417216,.00020319,87.8889,14.8836,91.7120,268.4240,0,U,45433,999,30675,.10644304E-2,.39E-5,0
ONEWEB-0018,2020-020L,2026-07-18T04:39:43.294176,13.11414968,.00016915,87.8888,14.8919,102.9396,257.1921,0,U,45434,999,30669,-.49427923E-3,-.162E-5,0
ONEWEB-0083,2020-020M,2026-07-18T00:45:45.091296,13.11414747,.00019003,87.8892,14.9196,93.2269,266.9076,0,U,45435,999,30671,.36698697E-3,.143E-5,0
ONEWEB-0095,2020-020N,2026-07-18T06:03:09.133920,13.11415300,.00022479,87.8894,14.8843,76.2506,283.8872,0,U,45436,999,30674,.13187371E-2,.48E-5,0
ONEWEB-0092,2020-020P,2026-07-18T01:17:29.657472,13.11414248,.00017138,87.8893,14.9148,97.0897,263.0426,0,U,45437,999,30683,-.16370165E-2,-.567E-5,0
ONEWEB-0085,2020-020Q,2026-07-18T00:45:21.164544,13.11415461,.00018751,87.8888,14.9245,90.4580,269.6763,0,U,45438,999,30671,.36124324E-3,.141E-5,0
ONEWEB-0096,2020-020R,2026-07-18T04:27:43.498368,13.11414823,.00019196,87.8892,14.8914,88.2783,271.8565,0,U,45439,999,30672,.57464505E-3,.216E-5,0
ONEWEB-0037,2020-020S,2026-07-18T05:05:32.369280,13.11416238,.00019736,87.8903,14.8593,86.8465,273.2888,0,U,45440,999,30676,-.15408131E-2,-.533E-5,0
ONEWEB-0042,2020-020T,2026-07-18T00:33:09.359136,13.11416001,.00017611,87.8892,14.9204,90.8610,269.2719,0,U,45441,999,30670,.12508726E-2,.456E-5,0
ONEWEB-0098,2020-020U,2026-07-18T05:56:50.933472,13.11415378,.00019146,87.8890,14.8844,93.2508,266.8839,0,U,45442,999,30671,.15985542E-2,.579E-5,0
ONEWEB-0055,2020-020V,2026-07-17T23:56:31.575552,13.11418548,.00019258,87.8894,14.9333,91.8733,268.2615,0,U,45443,999,30665,-.31817687E-4,.1E-7,0
ONEWEB-0093,2020-020W,2026-07-17T23:39:19.454976,13.10894374,.00015014,87.8894,14.9328,90.8076,269.3223,0,U,45444,999,30671,-.15095799E-2,-.518E-5,0
ONEWEB-0029,2020-020X,2026-07-18T00:06:42.243840,13.11417027,.00015945,87.8885,14.9318,93.8897,266.2413,0,U,45445,999,30669,.74165728E-3,.276E-5,0
