ONEWEB-0053             
1 45157U 20008AC  26199.04841279  .00000417  00000+0  11573-2 0  9994
2 45157  87.8816  30.1322 0001439  78.0644 282.0645 13.10375000311955
ONEWEB-0054             
1 45158U 20008AD  26199.08403952 -.00000198  00000+0 -60336-3 0  9991
2 45158  87.8816  30.1108 0001851  86.3398 273.7941 13.10372785312071
ONEWEB-0056             
1 45159U 20008AE  26199.28413542  .00000618  00000+0  17343-2 0  9994
2 45159  87.8823  30.0646 0002073  83.8113 276.3251 13.10374079312251
ONEWEB-0057             
1 45160U 20008AF  26199.22502394  .00000378  00000+0  10465-2 0  9995
2 45160  87.8816  30.0879 0001475  74.7034 285.4256 13.10370079312419
ONEWEB-0058             
1 45161U 20008AG  26199.28806304  .00011598  00000+0  33103-1 0  9999
2 45161  87.8812  30.0785 0001993  95.6087 264.5268 13.10463417312495
ONEWEB-0059             
1 45162U 20008AH  26199.28443663  .00000504  00000+0  14079-2 0  9992
2 45162  87.8817  30.0794 0001582  88.2690 271.8619 13.10374886312394
ONEWEB-0062             
1 45163U 20008AJ  26199.23153269  .00000052  00000+0  11191-3 0  9999
2 45163  87.8818  30.0796 0002084  94.4469 265.6897 13.10369329312259
ONEWEB-0065             
1 45164U 20008AK  26199.03637879 -.00000366  00000+0 -10840-2 0  9991
2 45164  87.8823  30.1264 0001770  78.1518 281.9808 13.10376163311922
ONEWEB-0066             
1 45424U 20020A   26199.04685617 -.00000424  00000+0 -12323-2 0  9991
2 45424  87.8883  14.9250 0001735  95.2256 264.9070 13.11419848306725
ONEWEB-0067             
1 45425U 20020B   26199.00828966  .00000376  00000+0  10256-2 0  9991
2 45425  87.8907  14.8610 0001708  86.7762 273.3561 13.11426811306771
ONEWEB-0080             
1 45426U 20020C   26199.00804779  .00000361  00000+0  98188-3 0  9993
2 45426  87.8896  14.9328 0002091  97.1536 262.9830 13.11417256306740
ONEWEB-0090             
1 45427U 20020D   26199.18944894  .00000062  00000+0  13882-3 0  9992
2 45427  87.8895  14.9007 0001914  92.0689 268.0658 13.11415091306739
ONEWEB-0061             
1 45428U 20020E   26198.99249023 -.00000201  00000+0 -60263-3 0  9995
2 45428  87.8892  14.9242 0001826  92.3554 267.7783 13.11418940306667
ONEWEB-0081             
1 45429U 20020F   26199.20286732 -.00000428  00000+0 -12449-2 0  9992
2 45429  87.8889  14.8914 0001623  91.6252 268.5062 13.11416321306807
ONEWEB-0069             
1 45430U 20020G   26199.20469246 -.00000518  00000+0 -14977-2 0  9995
2 45430  87.8892  14.8945 0001644  94.6112 265.5204 13.11418168306736
ONEWEB-0031             
1 45431U 20020H   26199.01130435  .00000508  00000+0  13980-2 0  9990
2 45431  87.8882  14.9355 0002002  95.4178 264.7178 13.11418981306691
ONEWEB-0027             
1 45432U 20020J   26199.16704455 -.00000149  00000+0 -41652-3 0  9997
2 45432  87.9149 359.7024 0002291  92.4712 267.6682 13.17651072310438
ONEWEB-0064             
1 45433U 20020K   26199.23848634  .00000390  00000+0  10644-2 0  9996
2 45433  87.8889  14.8836 0002031  91.7120 268.4240 13.11417216306759
ONEWEB-0018             
1 45434U 20020L   26199.19425109 -.00000162  00000+0 -49428-3 0  9992
2 45434  87.8888  14.8919 0001691 102.9396 257.1921 13.11414968306697
ONEWEB-0083             
1 45435U 20020M   26199.03177189  .00000143  00000+0  36699-3 0  9991
2 45435  87.8892  14.9196 0001900  93.2269 266.9076 13.11414747306712
ONEWEB-0095             
1 45436U 20020N   26199.25218905  .00000480  00000+0  13187-2 0  9998
2 45436  87.8894  14.8843 0002247  76.2506 283.8872 13.11415300306744
ONEWEB-0092             
1 45437U 20020P   26199.05381548 -.00000567  00000+0 -16370-2 0  9996
2 45437  87.8893  14.9148 0001713  97.0897 263.0426 13.11414248306839
ONEWEB-0085             
1 45438U 20020Q   26199.03149496  .00000141  00000+0  36124-3 0  9995
2 45438  87.8888  14.9245 0001875  90.4580 269.6763 13.11415461306718
ONEWEB-0096             
1 45439U 20020R   26199.18592012  .00000216  00000+0  57465-3 0  9992
2 45439  87.8892  14.8914 0001919  88.2783 271.8565 13.11414823306722
ONEWEB-0037             
1 45440U 20020S   26199.21218020 -.00000533  00000+0 -15408-2 0  9996
2 45440  87.8903  14.8593 0001973  86.8465 273.2888 13.11416238306761
ONEWEB-0042             
1 45441U 20020T   26199.02302499  .00000456  00000+0  12509-2 0  9991
2 45441  87.8892  14.9204 0001761  90.8610 269.2719 13.11416001306701
ONEWEB-0098             
1 45442U 20020U   26199.24781173  .00000579  00000+0  15986-2 0  9994
2 45442  87.8890  14.8844 0001914  93.2508 266.8839 13.11415378306715
ONEWEB-0055             
1 45443U 20020V   26198.99758768  .00000001  00000+0 -31818-4 0  9995
2 45443  87.8894  14.9333 0001925  91.8733 268.2615 13.11418548306653
ONEWEB-0093             
1 45444U 20020W   26198.98564184 -.00000518  00000+0 -15096-2 0  9994
2 45444  87.8894  14.9328 0001501  90.8076 269.3223 13.10894374306715
ONEWEB-0029             
1 45445U 20020X   26199.00465560  .00000276  00000+0  74166-3 0  9990
2 45445  87.8885  14.9318 0001594  93.8897 266.2413 13.11417027306692
